[{"OBJECT_NAME":"CANX-5","OBJECT_ID":"2014-034D","EPOCH":"2026-03-09T17:03:12.784896","MEAN_MOTION":14.81078391,"ECCENTRICITY":0.00123171,"INCLINATION":98.3278,"RA_OF_ASC_NODE":300.3368,"ARG_OF_PERICENTER":336.6034,"MEAN_ANOMALY":23.4615,"EPHEMERIS_TYPE":0,"CLASSIFICATION_TYPE":"U","NORAD_CAT_ID":40056,"ELEMENT_SET_NO":999,"REV_AT_EPOCH":62061,"BSTAR":0.00019034283,"MEAN_MOTION_DOT":1.421e-5,"MEAN_MOTION_DDOT":0},{"OBJECT_NAME":"CZ-4C R\/B","OBJECT_ID":"2023-136B","EPOCH":"2026-03-09T22:23:17.511648","MEAN_MOTION":15.02951771,"ECCENTRICITY":0.01088591,"INCLINATION":98.3028,"RA_OF_ASC_NODE":56.8789,"ARG_OF_PERICENTER":268.7974,"MEAN_ANOMALY":90.0776,"EPHEMERIS_TYPE":0,"CLASSIFICATION_TYPE":"U","NORAD_CAT_ID":57798,"ELEMENT_SET_NO":999,"REV_AT_EPOCH":13700,"BSTAR":0.0002043348,"MEAN_MOTION_DOT":3.042e-5,"MEAN_MOTION_DDOT":0}]
